CCSDS_OMM_VERS = 2.0
CREATION_DATE  = 
ORIGINATOR     = 

OBJECT_NAME    = ENVISAT
OBJECT_ID      = 2002-009A
CENTER_NAME    = EARTH
REF_FRAME      = TEME
TIME_SYSTEM    = UTC
MEAN_ELEMENT_THEORY = SGP/SGP4

EPOCH          = 2025-11-20T20:29:27.937248
MEAN_MOTION    = 14.38987629
ECCENTRICITY   = .0001239
INCLINATION    = 98.3565
RA_OF_ASC_NODE = 276.1531
ARG_OF_PERICENTER = 81.5277
MEAN_ANOMALY   = 289.6654

EPHEMERIS_TYPE = 0
CLASSIFICATION_TYPE = U
NORAD_CAT_ID   = 27386
ELEMENT_SET_NO = 999
REV_AT_EPOCH   = 24352
BSTAR          = .61996E-4
MEAN_MOTION_DOT = .149E-5
MEAN_MOTION_DDOT = 0

CCSDS_OMM_VERS = 2.0
CREATION_DATE  = 
ORIGINATOR     = 

OBJECT_NAME    = IDEFIX & ARIANE 42P R/B
OBJECT_ID      = 2002-021B
CENTER_NAME    = EARTH
REF_FRAME      = TEME
TIME_SYSTEM    = UTC
MEAN_ELEMENT_THEORY = SGP/SGP4

EPOCH          = 2025-11-20T13:22:14.466432
MEAN_MOTION    = 14.30927078
ECCENTRICITY   = .001231
INCLINATION    = 98.5753
RA_OF_ASC_NODE = 259.5398
ARG_OF_PERICENTER = 144.2208
MEAN_ANOMALY   = 215.9802

EPHEMERIS_TYPE = 0
CLASSIFICATION_TYPE = U
NORAD_CAT_ID   = 27422
ELEMENT_SET_NO = 999
REV_AT_EPOCH   = 22841
BSTAR          = .1479E-3
MEAN_MOTION_DOT = .345E-5
MEAN_MOTION_DDOT = 0

CCSDS_OMM_VERS = 2.0
CREATION_DATE  = 
ORIGINATOR     = 

OBJECT_NAME    = AQUA
OBJECT_ID      = 2002-022A
CENTER_NAME    = EARTH
REF_FRAME      = TEME
TIME_SYSTEM    = UTC
MEAN_ELEMENT_THEORY = SGP/SGP4

EPOCH          = 2025-11-20T20:18:29.088000
MEAN_MOTION    = 14.61733796
ECCENTRICITY   = .00006
INCLINATION    = 98.4005
RA_OF_ASC_NODE = 285.3744
ARG_OF_PERICENTER = 71.4231
MEAN_ANOMALY   = 310.2670

EPHEMERIS_TYPE = 0
CLASSIFICATION_TYPE = U
NORAD_CAT_ID   = 27424
ELEMENT_SET_NO = 999
REV_AT_EPOCH   = 25283
BSTAR          = .24608E-3
MEAN_MOTION_DOT = .1178E-4
MEAN_MOTION_DDOT = 0

CCSDS_OMM_VERS = 2.0
CREATION_DATE  = 
ORIGINATOR     = 

OBJECT_NAME    = CZ-4B R/B
OBJECT_ID      = 2002-024C
CENTER_NAME    = EARTH
REF_FRAME      = TEME
TIME_SYSTEM    = UTC
MEAN_ELEMENT_THEORY = SGP/SGP4

EPOCH          = 2025-11-20T15:59:57.073056
MEAN_MOTION    = 14.14521349
ECCENTRICITY   = .0049646
INCLINATION    = 98.9032
RA_OF_ASC_NODE = 13.5119
ARG_OF_PERICENTER = 333.6736
MEAN_ANOMALY   = 186.7396

EPHEMERIS_TYPE = 0
CLASSIFICATION_TYPE = U
NORAD_CAT_ID   = 27432
ELEMENT_SET_NO = 999
REV_AT_EPOCH   = 21382
BSTAR          = .57665E-4
MEAN_MOTION_DOT = .67E-6
MEAN_MOTION_DDOT = 0

CCSDS_OMM_VERS = 2.0
CREATION_DATE  = 
ORIGINATOR     = 

OBJECT_NAME    = MIDORI II (ADEOS-II)
OBJECT_ID      = 2002-056A
CENTER_NAME    = EARTH
REF_FRAME      = TEME
TIME_SYSTEM    = UTC
MEAN_ELEMENT_THEORY = SGP/SGP4

EPOCH          = 2025-11-20T14:13:11.968032
MEAN_MOTION    = 14.29184103
ECCENTRICITY   = .0000976
INCLINATION    = 98.7602
RA_OF_ASC_NODE = 277.4367
ARG_OF_PERICENTER = 23.8637
MEAN_ANOMALY   = 336.2590

EPHEMERIS_TYPE = 0
CLASSIFICATION_TYPE = U
NORAD_CAT_ID   = 27597
ELEMENT_SET_NO = 999
REV_AT_EPOCH   = 19471
BSTAR          = .14609E-3
MEAN_MOTION_DOT = .326E-5
MEAN_MOTION_DDOT = 0

CCSDS_OMM_VERS = 2.0
CREATION_DATE  = 
ORIGINATOR     = 

OBJECT_NAME    = H-2A R/B
OBJECT_ID      = 2002-056E
CENTER_NAME    = EARTH
REF_FRAME      = TEME
TIME_SYSTEM    = UTC
MEAN_ELEMENT_THEORY = SGP/SGP4

EPOCH          = 2025-11-20T11:55:05.716416
MEAN_MOTION    = 14.33652240
ECCENTRICITY   = .0071222
INCLINATION    = 98.3030
RA_OF_ASC_NODE = 284.1434
ARG_OF_PERICENTER = 126.3925
MEAN_ANOMALY   = 344.7180

EPHEMERIS_TYPE = 0
CLASSIFICATION_TYPE = U
NORAD_CAT_ID   = 27601
ELEMENT_SET_NO = 999
REV_AT_EPOCH   = 19846
BSTAR          = .11846E-3
MEAN_MOTION_DOT = .297E-5
MEAN_MOTION_DDOT = 0

CCSDS_OMM_VERS = 2.0
CREATION_DATE  = 
ORIGINATOR     = 

OBJECT_NAME    = CZ-4B R/B
OBJECT_ID      = 2003-049C
CENTER_NAME    = EARTH
REF_FRAME      = TEME
TIME_SYSTEM    = UTC
MEAN_ELEMENT_THEORY = SGP/SGP4

EPOCH          = 2025-11-20T10:48:35.519904
MEAN_MOTION    = 14.54880156
ECCENTRICITY   = .0047728
INCLINATION    = 98.6770
RA_OF_ASC_NODE = 310.1743
ARG_OF_PERICENTER = 203.8638
MEAN_ANOMALY   = 156.0345

EPHEMERIS_TYPE = 0
CLASSIFICATION_TYPE = U
NORAD_CAT_ID   = 28059
ELEMENT_SET_NO = 999
REV_AT_EPOCH   = 17071
BSTAR          = .11022E-3
MEAN_MOTION_DOT = .429E-5
MEAN_MOTION_DDOT = 0

CCSDS_OMM_VERS = 2.0
CREATION_DATE  = 
ORIGINATOR     = 

OBJECT_NAME    = CZ-2C R/B
OBJECT_ID      = 2004-012C
CENTER_NAME    = EARTH
REF_FRAME      = TEME
TIME_SYSTEM    = UTC
MEAN_ELEMENT_THEORY = SGP/SGP4

EPOCH          = 2025-11-20T09:38:57.073344
MEAN_MOTION    = 15.53534730
ECCENTRICITY   = .0018291
INCLINATION    = 97.7460
RA_OF_ASC_NODE = 15.2116
ARG_OF_PERICENTER = 356.4155
MEAN_ANOMALY   = 3.6963

EPHEMERIS_TYPE = 0
CLASSIFICATION_TYPE = U
NORAD_CAT_ID   = 28222
ELEMENT_SET_NO = 999
REV_AT_EPOCH   = 18725
BSTAR          = .52384E-3
MEAN_MOTION_DOT = .33521E-3
MEAN_MOTION_DDOT = 0

CCSDS_OMM_VERS = 2.0
CREATION_DATE  = 
ORIGINATOR     = 

OBJECT_NAME    = SL-16 R/B
OBJECT_ID      = 2004-021B
CENTER_NAME    = EARTH
REF_FRAME      = TEME
TIME_SYSTEM    = UTC
MEAN_ELEMENT_THEORY = SGP/SGP4

EPOCH          = 2025-11-20T15:06:42.575616
MEAN_MOTION    = 14.14578901
ECCENTRICITY   = .0006292
INCLINATION    = 70.9998
RA_OF_ASC_NODE = 101.3614
ARG_OF_PERICENTER = 223.3480
MEAN_ANOMALY   = 136.7148

EPHEMERIS_TYPE = 0
CLASSIFICATION_TYPE = U
NORAD_CAT_ID   = 28353
ELEMENT_SET_NO = 999
REV_AT_EPOCH   = 10741
BSTAR          = .16851E-3
MEAN_MOTION_DOT = .276E-5
MEAN_MOTION_DDOT = 0

CCSDS_OMM_VERS = 2.0
CREATION_DATE  = 
ORIGINATOR     = 

OBJECT_NAME    = CZ-4B R/B
OBJECT_ID      = 2004-035C
CENTER_NAME    = EARTH
REF_FRAME      = TEME
TIME_SYSTEM    = UTC
MEAN_ELEMENT_THEORY = SGP/SGP4

EPOCH          = 2025-11-20T13:04:40.888416
MEAN_MOTION    = 15.26878821
ECCENTRICITY   = .0033612
INCLINATION    = 97.3632
RA_OF_ASC_NODE = 355.1907
ARG_OF_PERICENTER = 358.6696
MEAN_ANOMALY   = 1.4448

EPHEMERIS_TYPE = 0
CLASSIFICATION_TYPE = U
NORAD_CAT_ID   = 28415
ELEMENT_SET_NO = 999
REV_AT_EPOCH   = 16324
BSTAR          = .30103E-3
MEAN_MOTION_DOT = .8005E-4
MEAN_MOTION_DDOT = 0

CCSDS_OMM_VERS = 2.0
CREATION_DATE  = 
ORIGINATOR     = 

OBJECT_NAME    = CZ-2C R/B
OBJECT_ID      = 2004-046B
CENTER_NAME    = EARTH
REF_FRAME      = TEME
TIME_SYSTEM    = UTC
MEAN_ELEMENT_THEORY = SGP/SGP4

EPOCH          = 2025-11-20T17:32:14.826624
MEAN_MOTION    = 14.26926509
ECCENTRICITY   = .0140589
INCLINATION    = 98.1968
RA_OF_ASC_NODE = 241.4791
ARG_OF_PERICENTER = 116.8587
MEAN_ANOMALY   = 244.7046

EPHEMERIS_TYPE = 0
CLASSIFICATION_TYPE = U
NORAD_CAT_ID   = 28480
ELEMENT_SET_NO = 999
REV_AT_EPOCH   = 9296
BSTAR          = .82858E-4
MEAN_MOTION_DOT = .184E-5
MEAN_MOTION_DDOT = 0

CCSDS_OMM_VERS = 2.0
CREATION_DATE  = 
ORIGINATOR     = 

OBJECT_NAME    = ARIANE 5 R/B
OBJECT_ID      = 2004-049H
CENTER_NAME    = EARTH
REF_FRAME      = TEME
TIME_SYSTEM    = UTC
MEAN_ELEMENT_THEORY = SGP/SGP4

EPOCH          = 2025-11-20T09:59:55.523040
MEAN_MOTION    = 14.84943386
ECCENTRICITY   = .0084378
INCLINATION    = 98.2519
RA_OF_ASC_NODE = 123.9001
ARG_OF_PERICENTER = 346.0546
MEAN_ANOMALY   = 13.8338

EPHEMERIS_TYPE = 0
CLASSIFICATION_TYPE = U
NORAD_CAT_ID   = 28499
ELEMENT_SET_NO = 999
REV_AT_EPOCH   = 12957
BSTAR          = .11072E-3
MEAN_MOTION_DOT = .939E-5
MEAN_MOTION_DDOT = 0

